ONEWEB-0319             
1 49105U 21075AG  24346.81371339  .00000067  00000+0  14056-3 0  9999
2 49105  87.9095 115.9280 0002073 105.1407 254.9954 13.17649782160862
ONEWEB-0323             
1 49106U 21075AH  24347.31234122  .00000491  00000+0  13295-2 0  9998
2 49106  87.8878 100.5466 0002419 108.2253 251.9139 13.12444549163161
ONEWEB-0329             
1 49107U 21075AJ  24346.82213114  .00000045  00000+0  82463-4 0  9992
2 49107  87.9098 115.9309 0001700 107.1780 252.9538 13.17652524160843
ONEWEB-0330             
1 49108U 21075AK  24347.12757438 -.00000032  00000+0 -11665-3 0  9992
2 49108  87.9097 115.8716 0001580 112.3176 247.8123 13.17649887161917
ONEWEB-0292             
1 49186U 21083A   24346.80054698 -.00000319  00000+0 -90794-3 0  9997
2 49186  87.8937  70.1265 0001931 101.8838 258.2508 13.13467622158410
ONEWEB-0303             
1 49187U 21083B   24346.77225863  .00000033  00000+0  51239-4 0  9991
2 49187  87.9113  85.3700 0001904 102.7062 257.4283 13.18689178157179
ONEWEB-0306             
1 49188U 21083C   24347.21803380  .00000131  00000+0  29868-3 0  9999
2 49188  87.9117  85.2671 0001532 107.2908 252.8392 13.18688829158551
ONEWEB-0307             
1 49189U 21083D   24346.79499522 -.00000187  00000+0 -54606-3 0  9992
2 49189  87.8935  70.1293 0001482 114.1744 245.9540 13.13469707158411
